1 37538U          19281.92083333  .00000000  00000-0  00000-0 0 00000
2 37538 097.6560 171.2950 0000000 000.0000 313.1790 15.01920000000000
1 37538U          19282.25277778  .00000000  00000-0  00000-0 0 00000
2 37538 097.6550 171.6230 0000000 000.0000 305.6790 15.01920000000000
1 37538U          19282.60902778  .00000000  00000-0  00000-0 0 00000
2 37538 097.6550 171.9740 0000000 000.0000 069.4300 15.01920000000000
1 37538U          19283.04722222  .00000000  00000-0  00000-0 0 00000
2 37538 097.6540 172.4060 0000000 000.0000 275.6800 15.01920000000000
1 37538U          19283.34305556  .00000000  00000-0  00000-0 0 00000
2 37538 097.6530 172.6970 0000000 000.0000 073.1800 15.01920000000000
1 37538U          19283.62291667  .00000000  00000-0  00000-0 0 00000
2 37538 097.6530 172.9730 0000000 000.0000 144.4300 15.01920000000000
1 37538U          19284.01250000  .00000000  00000-0  00000-0 0 00000
2 37538 097.6520 173.3570 0000000 000.0000 088.1800 15.01920000000000
1 37538U          19284.29236111  .00000000  00000-0  00000-0 0 00000
2 37538 097.6520 173.6330 0000000 000.0000 159.4300 15.01920000000000
1 37538U          19284.59791667  .00000000  00000-0  00000-0 0 00000
2 37538 097.6510 173.9340 0000000 000.0000 009.4300 15.01920000000000
1 37538U          19284.92291667  .00000000  00000-0  00000-0 0 00000
2 37538 097.6500 174.2540 0000000 000.0000 324.4300 15.01920000000000
1 37538U          19285.40000000  .00000000  00000-0  00000-0 0 00000
2 37538 097.6490 174.7250 0000000 000.0000 020.6800 15.01920000000000
1 37538U          19285.66250000  .00000000  00000-0  00000-0 0 00000
2 37538 097.6490 174.9830 0000000 000.0000 358.1800 15.01920000000000
1 37538U          19286.07500000  .00000000  00000-0  00000-0 0 00000
2 37538 097.6480 175.3900 0000000 000.0000 065.6800 15.01920000000000
1 37538U          19286.29444444  .00000000  00000-0  00000-0 0 00000
2 37538 097.6480 175.6060 0000000 000.0000 170.6800 15.01920000000000
1 37538U          19286.65486111  .00000000  00000-0  00000-0 0 00000
2 37538 097.6470 175.9620 0000000 000.0000 316.9300 15.01920000000000
1 37538U          19287.03055556  .00000000  00000-0  00000-0 0 00000
2 37538 097.6460 176.3320 0000000 000.0000 185.6810 15.01920000000000
1 37538U          19287.25486111  .00000000  00000-0  00000-0 0 00000
2 37538 097.6460 176.5530 0000000 000.0000 316.9310 15.01920000000000
1 37538U          19287.60000000  .00000000  00000-0  00000-0 0 00000
2 37538 097.6450 176.8930 0000000 000.0000 020.6810 15.01920000000000
1 37538U          19287.96875000  .00000000  00000-0  00000-0 0 00000
2 37538 097.6450 177.2570 0000000 000.0000 211.9310 15.01920000000000
1 37538U          19288.35555556  .00000000  00000-0  00000-0 0 00000
2 37538 097.6440 177.6380 0000000 000.0000 140.6810 15.01920000000000
1 37538U          19288.65208333  .00000000  00000-0  00000-0 0 00000
2 37538 097.6430 177.9300 0000000 000.0000 301.9310 15.01920000000000
1 37538U          19289.00555556  .00000000  00000-0  00000-0 0 00000
2 37538 097.6430 178.2780 0000000 000.0000 050.6810 15.01920000000000
1 37538U          19289.34583333  .00000000  00000-0  00000-0 0 00000
2 37538 097.6420 178.6140 0000000 000.0000 088.1810 15.01920000000000
1 37538U          19289.71666667  .00000000  00000-0  00000-0 0 00000
2 37538 097.6410 178.9790 0000000 000.0000 290.6810 15.01920000000000
1 37538U          19289.92013889  .00000000  00000-0  00000-0 0 00000
2 37538 097.6410 179.1800 0000000 000.0000 309.4310 15.01920000000000
1 37538U          19290.38055556  .00000000  00000-0  00000-0 0 00000
2 37538 097.6400 179.6340 0000000 000.0000 275.6810 15.01920000000000
1 37538U          19290.60972222  .00000000  00000-0  00000-0 0 00000
2 37538 097.6400 179.8590 0000000 000.0000 073.1810 15.01920000000000
1 37538U          19290.95972222  .00000000  00000-0  00000-0 0 00000
2 37538 097.6390 180.2040 0000000 000.0000 163.1810 15.01920000000000
1 37538U          19291.27638889  .00000000  00000-0  00000-0 0 00000
2 37538 097.6390 180.5170 0000000 000.0000 073.1810 15.01920000000000
1 37538U          19291.62569444  .00000000  00000-0  00000-0 0 00000
2 37538 097.6380 180.8610 0000000 000.0000 159.4310 15.01920000000000
1 37538U          19292.04375000  .00000000  00000-0  00000-0 0 00000
2 37538 097.6370 181.2730 0000000 000.0000 256.9310 15.01920000000000
1 37538U          19292.38333333  .00000000  00000-0  00000-0 0 00000
2 37538 097.6360 181.6080 0000000 000.0000 290.6810 15.01920000000000
1 37538U          19292.60694444  .00000000  00000-0  00000-0 0 00000
2 37538 097.6360 181.8280 0000000 000.0000 058.1810 15.01920000000000
1 37538U          19292.91736111  .00000000  00000-0  00000-0 0 00000
2 37538 097.6360 182.1340 0000000 000.0000 294.4310 15.01920000000000
1 37538U          19293.40902778  .00000000  00000-0  00000-0 0 00000
2 37538 097.6350 182.6180 0000000 000.0000 069.4310 15.01920000000000
1 37538U          19293.61458333  .00000000  00000-0  00000-0 0 00000
2 37538 097.6340 182.8210 0000000 000.0000 099.4310 15.01920000000000
1 37538U          19293.98958333  .00000000  00000-0  00000-0 0 00000
2 37538 097.6340 183.1910 0000000 000.0000 324.4310 15.01920000000000
1 37538U          19294.33125000  .00000000  00000-0  00000-0 0 00000
2 37538 097.6330 183.5270 0000000 000.0000 009.4310 15.01920000000000
1 37538U          19294.66319444  .00000000  00000-0  00000-0 0 00000
2 37538 097.6320 183.8550 0000000 000.0000 001.9310 15.01920000000000
1 37538U          19294.92986111  .00000000  00000-0  00000-0 0 00000
2 37538 097.6320 184.1170 0000000 000.0000 001.9310 15.01920000000000
1 37538U          19295.26458333  .00000000  00000-0  00000-0 0 00000
2 37538 097.6310 184.4470 0000000 000.0000 009.4310 15.01920000000000
1 37538U          19295.67916667  .00000000  00000-0  00000-0 0 00000
2 37538 097.6300 184.8560 0000000 000.0000 088.1810 15.01920000000000
1 37538U          19295.94444444  .00000000  00000-0  00000-0 0 00000
2 37538 097.6300 185.1170 0000000 000.0000 080.6810 15.01920000000000
1 37538U          19296.38750000  .00000000  00000-0  00000-0 0 00000
2 37538 097.6290 185.5540 0000000 000.0000 313.1810 15.01920000000000
1 37538U          19296.60347222  .00000000  00000-0  00000-0 0 00000
2 37538 097.6290 185.7670 0000000 000.0000 039.4300 15.01920000000000
1 37538U          19297.01736111  .00000000  00000-0  00000-0 0 00000
2 37538 097.6280 186.1750 0000000 000.0000 114.4300 15.01920000000000
1 37538U          19297.26805556  .00000000  00000-0  00000-0 0 00000
2 37538 097.6270 186.4220 0000000 000.0000 028.1800 15.01920000000000
1 37538U          19297.74583333  .00000000  00000-0  00000-0 0 00000
2 37538 097.6270 186.8930 0000000 000.0000 088.1800 15.01920000000000
1 37538U          19298.06041667  .00000000  00000-0  00000-0 0 00000
2 37538 097.6260 187.2030 0000000 000.0000 346.9300 15.01920000000000
1 37538U          19298.25277778  .00000000  00000-0  00000-0 0 00000
2 37538 097.6260 187.3920 0000000 000.0000 305.6800 15.01920000000000
1 37538U          19298.59236111  .00000000  00000-0  00000-0 0 00000
2 37538 097.6250 187.7270 0000000 000.0000 339.4300 15.01920000000000
1 37538U          19298.99236111  .00000000  00000-0  00000-0 0 00000
2 37538 097.6240 188.1210 0000000 000.0000 339.4300 15.01920000000000
1 37538U          19299.26666667  .00000000  00000-0  00000-0 0 00000
2 37538 097.6240 188.3920 0000000 000.0000 020.6800 15.01920000000000
1 37538U          19299.61597222  .00000000  00000-0  00000-0 0 00000
2 37538 097.6230 188.7360 0000000 000.0000 106.9300 15.01920000000000
1 37538U          19299.99375000  .00000000  00000-0  00000-0 0 00000
2 37538 097.6220 189.1080 0000000 000.0000 346.9300 15.01920000000000
1 37538U          19300.40486111  .00000000  00000-0  00000-0 0 00000
2 37538 097.6220 189.5130 0000000 000.0000 046.9300 15.01920000000000
1 37538U          19300.68611111  .00000000  00000-0  00000-0 0 00000
2 37538 097.6210 189.7910 0000000 000.0000 125.6800 15.01920000000000
1 37538U          19301.02222222  .00000000  00000-0  00000-0 0 00000
2 37538 097.6210 190.1220 0000000 000.0000 140.6790 15.01920000000000
1 37538U          19301.32291667  .00000000  00000-0  00000-0 0 00000
2 37538 097.6200 190.4180 0000000 000.0000 324.4290 15.01920000000000
1 37538U          19301.73472222  .00000000  00000-0  00000-0 0 00000
2 37538 097.6190 190.8240 0000000 000.0000 028.1790 15.01920000000000
1 37538U          19301.94236111  .00000000  00000-0  00000-0 0 00000
2 37538 097.6190 191.0290 0000000 000.0000 069.4290 15.01920000000000
1 37538U          19302.41041667  .00000000  00000-0  00000-0 0 00000
2 37538 097.6180 191.4900 0000000 000.0000 076.9290 15.01920000000000
1 37538U          19302.69861111  .00000000  00000-0  00000-0 0 00000
2 37538 097.6170 191.7740 0000000 000.0000 193.1790 15.01920000000000
1 37538U          19302.95625000  .00000000  00000-0  00000-0 0 00000
2 37538 097.6170 192.0280 0000000 000.0000 144.4290 15.01920000000000
1 37538U          19303.35902778  .00000000  00000-0  00000-0 0 00000
2 37538 097.6160 192.4250 0000000 000.0000 159.4290 15.01920000000000
1 37538U          19303.73958333  .00000000  00000-0  00000-0 0 00000
2 37538 097.6160 192.8000 0000000 000.0000 054.4290 15.01920000000000
1 37538U          19303.96527778  .00000000  00000-0  00000-0 0 00000
2 37538 097.6150 193.0220 0000000 000.0000 193.1780 15.01920000000000
1 37538U          19304.41319444  .00000000  00000-0  00000-0 0 00000
2 37538 097.6140 193.4640 0000000 000.0000 091.9280 15.01920000000000
1 37538U          19304.68402778  .00000000  00000-0  00000-0 0 00000
2 37538 097.6140 193.7310 0000000 000.0000 114.4280 15.01920000000000
1 37538U          19305.04027778  .00000000  00000-0  00000-0 0 00000
2 37538 097.6130 194.0820 0000000 000.0000 238.1780 15.01920000000000
1 37538U          19305.27708333  .00000000  00000-0  00000-0 0 00000
2 37538 097.6130 194.3150 0000000 000.0000 076.9280 15.01920000000000
